SOYUZ-MS 25             
1 59294U 24055A   24252.50970274  .00030141  00000+0  55776-3 0  9995
2 59294  51.6368 262.5999 0007677 328.3825  31.6702 15.48736661471479
CURTIS                  
1 59507U 98067WG  24252.31145161  .00890443  38128-3  18017-2 0  9995
2 59507  51.6151 245.3477 0004831  18.5218 341.5967 15.99001524 23578
1998-067WJ              
1 59559U 98067WJ  24252.37073193  .00837784  33224-3  17398-2 0  9995
2 59559  51.6207 246.5524 0006018  58.7569 301.4029 15.98519094 22430
1998-067WL              
1 59561U 98067WL  24252.42282374  .00112801  00000+0  10576-2 0  9996
2 59561  51.6291 255.2482 0002098  27.2169 332.8937 15.66340943 22297
BURSTCUBE               
1 59562U 98067WM  24252.43983885  .00843057  32576-3  19844-2 0  9991
2 59562  51.6213 246.2745 0006681  54.3343 305.8286 15.96250490 22423
SNOOPI                  
1 59563U 98067WN  24252.53660881  .00485092  00000+0  17585-2 0  9995
2 59563  51.6253 248.4692 0006368  46.9182 313.2354 15.86731090 22409
SHENZHOU-18 (SZ-18)     
1 59591U 24078A   24252.54631230  .00064048  00000+0  66863-3 0  9992
2 59591  41.4687 295.0062 0001308  60.2319 299.8651 15.63568957 21073
SZ-17 MODULE            
1 59624U 23164C   24252.51952240  .00094943  00000+0  61311-3 0  9998
2 59624  41.4744 289.4092 0008665 123.1294 237.0382 15.74985507 20630
PROGRESS-MS 27          
1 59913U 24103A   24252.50970274  .00030141  00000+0  55776-3 0  9997
2 59913  51.6368 262.5999 0007677 328.3825  31.6702 15.48736661471477
CYGNUS NG-21            
1 60378U 24139A   24252.50970274  .00030141  00000+0  55776-3 0  9993
2 60378  51.6368 262.5999 0007677 328.3825  31.6702 15.48736661471474
PROGRESS-MS 28          
1 60450U 24145A   24252.50970274  .00030141  00000+0  55776-3 0  9991
2 60450  51.6368 262.5999 0007677 328.3825  31.6702 15.48736661471475
BINAR-4                 
1 60952U 98067WS  24252.56141403  .00167130  00000+0  26118-2 0  9998
2 60952  51.6372 262.1952 0012520 341.3581  18.6949 15.52611870  1587
COSMOGIRLSAT            
1 60953U 98067WT  24252.56260411  .00118606  00000+0  19073-2 0  9996
2 60953  51.6377 262.2034 0013591 338.0009  22.0396 15.52001190  1585
SAKURA                  
1 60954U 98067WU  24252.49742579  .00132526  00000+0  21081-2 0  9998
2 60954  51.6376 262.5177 0013531 338.8578  21.1851 15.52244805  1576
1998-067WV              
1 60955U 98067WV  24252.49217528  .00242714  00000+0  35651-2 0  9999
2 60955  51.6370 262.4831 0012413 342.0576  17.9975 15.54038889  1575
BINAR-2                 
1 60956U 98067WW  24252.49632806  .00146896  00000+0  22990-2 0  9996
2 60956  51.6363 262.5102 0012690 340.7310  19.3199 15.52649154  1562
BINAR-3                 
1 60957U 98067WX  24252.49604059  .00178214  00000+0  27530-2 0  9990
2 60957  51.6371 262.5087 0012608 341.2730  18.7794 15.52887863  3551
1998-067WY              
1 60958U 98067WY  24252.56294129  .00112242  00000+0  18141-2 0  9999
2 60958  51.6378 262.2058 0013540 337.6096  22.4301 15.51889425  1575
